{
  "type": "FeatureCollection",
  "features": [
    {
      "type": "Feature",
      "properties": {
        "norad_id": 66052,
        "name": "HRC MONOBLOCK CAMERA",
        "group": "stations",
        "lat": 1.9687229949709009,
        "lon": 170.11127361077186,
        "alt_km": 409.2328748033269,
        "timestamp": "2025-12-07T07:31:35.103387+00:00",
        "meta_object_name": "HRC MONOBLOCK CAMERA",
        "meta_object_id": "1998-067XR",
        "meta_epoch": "2025-12-06T22:15:10.603584",
        "meta_mean_motion": 15.53573464,
        "meta_eccentricity": 0.00040212,
        "meta_inclination": 51.6285,
        "meta_ra_of_asc_node": 170.4765,
        "meta_arg_of_pericenter": 160.7333,
        "meta_mean_anomaly": 199.381,
        "meta_ephemeris_type": 0,
        "meta_classification_type": "U",
        "meta_norad_cat_id": 66052,
        "meta_element_set_no": 999,
        "meta_rev_at_epoch": 793,
        "meta_bstar": 0.00071615141,
        "meta_mean_motion_dot": 0.00046263,
        "meta_mean_motion_ddot": 0,
        "tle_line1": "1 66052U 98067XR  25340.92720606  .00046263  00000+0  71615-3 0  9998",
        "tle_line2": "2 66052  51.6285 170.4765 0004021 160.7333 199.3810 15.53573464  7931"
      },
      "geometry": {
        "type": "Point",
        "coordinates": [
          170.11127361077186,
          1.9687229949709009
        ]
      }
    },
    {
      "type": "Feature",
      "properties": {
        "norad_id": 66174,
        "name": "HTV-X1",
        "group": "stations",
        "lat": -14.43593577435176,
        "lon": 157.57554101154778,
        "alt_km": 422.3408600342673,
        "timestamp": "2025-12-07T07:31:35.103431+00:00",
        "meta_object_name": "HTV-X1",
        "meta_object_id": "2025-241A",
        "meta_epoch": "2025-12-06T20:46:13.238400",
        "meta_mean_motion": 15.49374779,
        "meta_eccentricity": 0.00034973,
        "meta_inclination": 51.6304,
        "meta_ra_of_asc_node": 171.5636,
        "meta_arg_of_pericenter": 213.1314,
        "meta_mean_anomaly": 146.9456,
        "meta_ephemeris_type": 0,
        "meta_classification_type": "U",
        "meta_norad_cat_id": 66174,
        "meta_element_set_no": 999,
        "meta_rev_at_epoch": 51,
        "meta_bstar": 0.00025393652,
        "meta_mean_motion_dot": 0.0001375,
        "meta_mean_motion_ddot": 0,
        "tle_line1": "1 66174U 25241A   25340.86543100  .00013750  00000+0  25394-3 0  9990",
        "tle_line2": "2 66174  51.6304 171.5636 0003497 213.1314 146.9456 15.49374779   519"
      },
      "geometry": {
        "type": "Point",
        "coordinates": [
          157.57554101154778,
          -14.43593577435176
        ]
      }
    },
    {
      "type": "Feature",
      "properties": {
        "norad_id": 66515,
        "name": "SZ-21 MODULE",
        "group": "stations",
        "lat": 41.437749670457904,
        "lon": 141.2538131374802,
        "alt_km": 377.964019098943,
        "timestamp": "2025-12-07T07:31:35.103474+00:00",
        "meta_object_name": "SZ-21 MODULE",
        "meta_object_id": "2025-246C",
        "meta_epoch": "2025-12-06T21:55:46.522560",
        "meta_mean_motion": 15.62073048,
        "meta_eccentricity": 0.00061635,
        "meta_inclination": 41.4777,
        "meta_ra_of_asc_node": 51.5754,
        "meta_arg_of_pericenter": 227.7607,
        "meta_mean_anomaly": 132.271,
        "meta_ephemeris_type": 0,
        "meta_classification_type": "U",
        "meta_norad_cat_id": 66515,
        "meta_element_set_no": 999,
        "meta_rev_at_epoch": 353,
        "meta_bstar": 0.00038291804,
        "meta_mean_motion_dot": 0.00034334,
        "meta_mean_motion_ddot": 0,
        "tle_line1": "1 66515U 25246C   25340.91373290  .00034334  00000+0  38292-3 0  9993",
        "tle_line2": "2 66515  41.4777  51.5754 0006163 227.7607 132.2710 15.62073048  3532"
      },
      "geometry": {
        "type": "Point",
        "coordinates": [
          141.2538131374802,
          41.437749670457904
        ]
      }
    },
    {
      "type": "Feature",
      "properties": {
        "norad_id": 66645,
        "name": "SHENZHOU-22",
        "group": "stations",
        "lat": -37.73508583933797,
        "lon": -69.15985076155766,
        "alt_km": 395.0979992083612,
        "timestamp": "2025-12-07T07:31:35.103492+00:00",
        "meta_object_name": "SHENZHOU-22",
        "meta_object_id": "2025-272A",
        "meta_epoch": "2025-12-06T21:14:35.052288",
        "meta_mean_motion": 15.58811356,
        "meta_eccentricity": 0.00094534,
        "meta_inclination": 41.4683,
        "meta_ra_of_asc_node": 52.2413,
        "meta_arg_of_pericenter": 344.5349,
        "meta_mean_anomaly": 15.5199,
        "meta_ephemeris_type": 0,
        "meta_classification_type": "U",
        "meta_norad_cat_id": 66645,
        "meta_element_set_no": 999,
        "meta_rev_at_epoch": 26300,
        "meta_bstar": 0.00035334049,
        "meta_mean_motion_dot": 0.00027906,
        "meta_mean_motion_ddot": 0,
        "tle_line1": "1 66645U 25272A   25340.88512792  .00027906  00000+0  35334-3 0  9995",
        "tle_line2": "2 66645  41.4683  52.2413 0009453 344.5349  15.5199 15.58811356263009"
      },
      "geometry": {
        "type": "Point",
        "coordinates": [
          -69.15985076155766,
          -37.73508583933797
        ]
      }
    },
    {
      "type": "Feature",
      "properties": {
        "norad_id": 66646,
        "name": "CZ-2F R/B",
        "group": "stations",
        "lat": 41.26364279416043,
        "lon": 127.32894102953743,
        "alt_km": 176.59635914658975,
        "timestamp": "2025-12-07T07:31:35.103517+00:00",
        "meta_object_name": "CZ-2F R/B",
        "meta_object_id": "2025-272B",
        "meta_epoch": "2025-12-06T20:55:41.021184",
        "meta_mean_motion": 16.34691308,
        "meta_eccentricity": 0.0038093,
        "meta_inclination": 41.4537,
        "meta_ra_of_asc_node": 46.5611,
        "meta_arg_of_pericenter": 222.6714,
        "meta_mean_anomaly": 137.119,
        "meta_ephemeris_type": 0,
        "meta_classification_type": "U",
        "meta_norad_cat_id": 66646,
        "meta_element_set_no": 999,
        "meta_rev_at_epoch": 189,
        "meta_bstar": 0.00045837,
        "meta_mean_motion_dot": 0.04803871,
        "meta_mean_motion_ddot": 7.8554e-06,
        "tle_line1": "1 66646U 25272B   25340.87200256  .04803871  78554-5  45837-3 0  9995",
        "tle_line2": "2 66646  41.4537  46.5611 0038093 222.6714 137.1190 16.34691308  1895"
      },
      "geometry": {
        "type": "Point",
        "coordinates": [
          127.32894102953743,
          41.26364279416043
        ]
      }
    },
    {
      "type": "Feature",
      "properties": {
        "norad_id": 66664,
        "name": "SOYUZ-MS 28",
        "group": "stations",
        "lat": -14.435930920611737,
        "lon": 157.57554519439287,
        "alt_km": 422.3408597631269,
        "timestamp": "2025-12-07T07:31:35.103529+00:00",
        "meta_object_name": "SOYUZ-MS 28",
        "meta_object_id": "2025-275A",
        "meta_epoch": "2025-12-06T20:46:13.238400",
        "meta_mean_motion": 15.49374779,
        "meta_eccentricity": 0.00034973,
        "meta_inclination": 51.6304,
        "meta_ra_of_asc_node": 171.5636,
        "meta_arg_of_pericenter": 213.1314,
        "meta_mean_anomaly": 146.9456,
        "meta_ephemeris_type": 0,
        "meta_classification_type": "U",
        "meta_norad_cat_id": 66664,
        "meta_element_set_no": 999,
        "meta_rev_at_epoch": 128,
        "meta_bstar": 0.00025393652,
        "meta_mean_motion_dot": 0.0001375,
        "meta_mean_motion_ddot": 0,
        "tle_line1": "1 66664U 25275A   25340.86543100  .00013750  00000+0  25394-3 0  9991",
        "tle_line2": "2 66664  51.6304 171.5636 0003497 213.1314 146.9456 15.49374779  1288"
      },
      "geometry": {
        "type": "Point",
        "coordinates": [
          157.57554519439287,
          -14.435930920611737
        ]
      }
    },
    {
      "type": "Feature",
      "properties": {
        "norad_id": 66906,
        "name": "1998-067XS",
        "group": "stations",
        "lat": -5.127927947540016,
        "lon": 165.2421121648399,
        "alt_km": 420.4090700776869,
        "timestamp": "2025-12-07T07:31:35.103540+00:00",
        "meta_object_name": "1998-067XS",
        "meta_object_id": "1998-067XS",
        "meta_epoch": "2025-12-06T22:16:16.867200",
        "meta_mean_motion": 15.50144102,
        "meta_eccentricity": 0.00041468,
        "meta_inclination": 51.6299,
        "meta_ra_of_asc_node": 171.2315,
        "meta_arg_of_pericenter": 177.6061,
        "meta_mean_anomaly": 182.4948,
        "meta_ephemeris_type": 0,
        "meta_classification_type": "U",
        "meta_norad_cat_id": 66906,
        "meta_element_set_no": 999,
        "meta_rev_at_epoch": 71,
        "meta_bstar": 0.00061899955,
        "meta_mean_motion_dot": 0.00035216,
        "meta_mean_motion_ddot": 0,
        "tle_line1": "1 66906U 98067XS  25340.92797300  .00035216  00000+0  61900-3 0  9993",
        "tle_line2": "2 66906  51.6299 171.2315 0004146 177.6061 182.4948 15.50144102   711"
      },
      "geometry": {
        "type": "Point",
        "coordinates": [
          165.2421121648399,
          -5.127927947540016
        ]
      }
    }
  ]
}